XRISM                   
1 57800U 23137A   24192.16538583  .00003567  00000+0  26308-3 0  9995
2 57800  31.0016 226.3169 0009458  78.0443 282.1253 15.01463130 46146
